ONEWEB-0153             
1 48044U 21025C   23351.48212426  .00000295  00000+0  77258-3 0  9990
2 48044  87.8981 141.8643 0001639 100.9338 259.1976 13.13469096133731
ONEWEB-0154             
1 48045U 21025D   23351.47894392  .00000225  00000+0  58193-3 0  9998
2 48045  87.8988 141.8797 0001565 104.0025 256.1278 13.13470062133697
ONEWEB-0116             
1 48046U 21025E   23351.44404811 -.00000102  00000+0 -31465-3 0  9998
2 48046  87.8982 141.8515 0001300 101.7128 258.4147 13.13473165133838
ONEWEB-0150             
1 48047U 21025F   23351.41862788  .00000435  00000+0  11559-2 0  9995
2 48047  87.8987 141.8850 0001631  94.8516 265.2799 13.13474091133722
ONEWEB-0107             
1 48048U 21025G   23351.49641217  .00000443  00000+0  11784-2 0  9995
2 48048  87.8986 141.8676 0001803  93.4782 266.6554 13.13470082133718
ONEWEB-0101             
1 48049U 21025H   23351.45990451 -.00000208  00000+0 -60510-3 0  9992
2 48049  87.8984 141.8819 0001563  98.3331 261.7975 13.13470521133680
ONEWEB-0113             
1 48050U 21025J   23351.43767654 -.00000030  00000+0 -11819-3 0  9990
2 48050  87.8989 141.8672 0001267  96.6230 263.5044 13.13468716133763
